API VERSION: 1.2
API SOURCE: NASA/JPL Horizons API

*******************************************************************************
 Revised: April 12, 2021               Jupiter                              599
 
 PHYSICAL DATA (revised 2025-Jan-30):
  Mass x 10^26 (kg)     = 18.9819           Density (g/cm^3)  = 1.3262 +- .0003
  Equat. radius (1 bar) = 71492+-4 km       Polar radius (km)     = 66854+-10
  Vol. Mean Radius (km) = 69911+-6          Flattening            = 0.06487
  Geometric Albedo      = 0.52              Rocky core mass (Mc/M)= 0.0261
  Sid. rot. period (III)= 9h 55m 29.711 s   Sid. rot. rate (rad/s)= 0.00017585
  Mean solar day, hrs   = ~9.9259         
  GM (km^3/s^2)         = 126686531.900     GM 1-sigma (km^3/s^2) =  +- 1.2732
  Equ. grav, ge (m/s^2) = 24.79             Pol. grav, gp (m/s^2) =  28.34
  Vis. magnitude V(1,0) = -9.40
  Vis. mag. (opposition)= -2.70             Obliquity to orbit    =  3.13 deg
  Sidereal orbit period = 11.861982204 y    Sidereal orbit period = 4332.589 d
  Mean daily motion     = 0.0831294 deg/d   Mean orbit speed, km/s= 13.0697
  Atmos. temp. (1 bar)  = 165+-5 K          Escape speed, km/s    =  59.5           
  A_roche(ice)/Rp       =  2.76             Hill's sphere rad. Rp = 740
                                 Perihelion   Aphelion     Mean
  Solar Constant (W/m^2)         56           46           51
  Maximum Planetary IR (W/m^2)   13.7         13.4         13.6
  Minimum Planetary IR (W/m^2)   13.7         13.4         13.6
*******************************************************************************


*******************************************************************************
Ephemeris / API_USER Thu Feb 19 13:09:24 2026 Pasadena, USA      / Horizons
*******************************************************************************
Target body name: Jupiter (599)                   {source: jup365_merged}
Center body name: Earth (399)                     {source: DE441}
Center-site name: BODY CENTER
*******************************************************************************
Start time      : A.D. 2032-Jan-06 16:27:00.0000 TDB
Stop  time      : A.D. 2032-Jan-09 16:27:00.0000 TDB
Step-size       : 60 minutes
*******************************************************************************
Center geodetic : 0.0, 0.0, 0.0                   {E-lon(deg),Lat(deg),Alt(km)}
Center cylindric: 0.0, 0.0, 0.0                   {E-lon(deg),Dxy(km),Dz(km)}
Center radii    : 6378.137, 6378.137, 6356.752 km {Equator_a, b, pole_c}
Output units    : AU-D
Calendar mode   : Mixed Julian/Gregorian
Output type     : GEOMETRIC cartesian states
Output format   : 3 (position, velocity, LT, range, range-rate)
EOP file        : eop.260218.p260517
EOP coverage    : DATA-BASED 1962-JAN-20 TO 2026-FEB-18. PREDICTS-> 2026-MAY-16
Reference frame : Ecliptic of J2000.0
*******************************************************************************
JDTDB
   X     Y     Z
   VX    VY    VZ
   LT    RG    RR
*******************************************************************************
$$SOE
2463238.185416667 = A.D. 2032-Jan-06 16:27:00.0000 TDB 
 X = 1.205078552179692E+00 Y =-6.069418665019582E+00 Z = 2.568550219081748E-04
 VX= 2.420342673845595E-02 VY= 6.363086038173773E-03 VZ=-1.711700421164212E-04
 LT= 3.573830697113659E-02 RG= 6.187896032916688E+00 RR=-1.527699662542774E-03
2463238.227083333 = A.D. 2032-Jan-06 17:27:00.0000 TDB 
 X = 1.206086956081378E+00 Y =-6.069153271157420E+00 Z = 2.497229282197272E-04
 VX= 2.419995987018404E-02 VY= 6.375817679228306E-03 VZ=-1.711704964931665E-04
 LT= 3.573793825695753E-02 RG= 6.187832192035592E+00 RR=-1.536661182329122E-03
2463238.268750000 = A.D. 2032-Jan-06 18:27:00.0000 TDB 
 X = 1.207095215454226E+00 Y =-6.068887347012548E+00 Z = 2.425908107301209E-04
 VX= 2.419648954293426E-02 VY= 6.388539756660806E-03 VZ=-1.711711765862075E-04
 LT= 3.573756738723961E-02 RG= 6.187767977934514E+00 RR=-1.545614330673105E-03
2463238.310416667 = A.D. 2032-Jan-06 19:27:00.0000 TDB 
 X = 1.208103330176745E+00 Y =-6.068620892963827E+00 Z = 2.354586610527514E-04
 VX= 2.419301681942446E-02 VY= 6.401253237612098E-03 VZ=-1.711720330827469E-04
 LT= 3.573719436391158E-02 RG= 6.187703390947403E+00 RR=-1.554559850164592E-03
2463238.352083333 = A.D. 2032-Jan-06 20:27:00.0000 TDB 
 X = 1.209111300168626E+00 Y =-6.068353909346806E+00 Z = 2.283264729127063E-04
 VX= 2.418954261047576E-02 VY= 6.413959230338365E-03 VZ=-1.711730139063797E-04
 LT= 3.573681918870301E-02 RG= 6.187638431373727E+00 RR=-1.563498650447295E-03
2463238.393750000 = A.D. 2032-Jan-06 21:27:00.0000 TDB 
 X = 1.210119125384025E+00 Y =-6.068086396448289E+00 Z = 2.211942422475683E-04
 VX= 2.418606765662855E-02 VY= 6.426658962935206E-03 VZ=-1.711740652348562E-04
 LT= 3.573644186310619E-02 RG= 6.187573099471866E+00 RR=-1.572431791073225E-03
2463238.435416667 = A.D. 2032-Jan-06 22:27:00.0000 TDB 
 X = 1.211126805804126E+00 Y =-6.067818354501818E+00 Z = 2.140619672544306E-04
 VX= 2.418259251234460E-02 VY= 6.439353759404908E-03 VZ=-1.711751325706238E-04
 LT= 3.573606238834236E-02 RG= 6.187507395453276E+00 RR=-1.581360461271420E-03
2463238.477083333 = A.D. 2032-Jan-06 23:27:00.0000 TDB 
 X = 1.212134341429111E+00 Y =-6.067549783684227E+00 Z = 2.069296483958734E-04
 VX= 2.417911753323852E-02 VY= 6.452045013219662E-03 VZ=-1.711761618522229E-04
 LT= 3.573568076533334E-02 RG= 6.187441319477558E+00 RR=-1.590285956691146E-03
2463238.518750000 = A.D. 2032-Jan-07 00:27:00.0000 TDB 
 X = 1.213141732269671E+00 Y =-6.067280684113337E+00 Z = 1.997972883585265E-04
 VX= 2.417564286680602E-02 VY= 6.464734158717318E-03 VZ=-1.711771005888741E-04
 LT= 3.573529699467887E-02 RG= 6.187374871648559E+00 RR=-1.599209653354565E-03
2463238.560416667 = A.D. 2032-Jan-07 01:27:00.0000 TDB 
 X = 1.214148978338205E+00 Y =-6.067011055846873E+00 Z = 1.926648919642195E-04
 VX= 2.417216844709498E-02 VY= 6.477422640824484E-03 VZ=-1.711778989958808E-04
 LT= 3.573491107664076E-02 RG= 6.187308052011605E+00 RR=-1.608132979212522E-03
2463238.602083333 = A.D. 2032-Jan-07 02:27:00.0000 TDB 
 X = 1.215156079639892E+00 Y =-6.066740898882677E+00 Z = 1.855324660325218E-04
 VX= 2.416869399370361E-02 VY= 6.490111883725891E-03 VZ=-1.711785111051375E-04
 LT= 3.573452301113391E-02 RG= 6.187240860551969E+00 RR=-1.617057383830052E-03
2463238.643750000 = A.D. 2032-Jan-07 03:27:00.0000 TDB 
 X = 1.216163036163817E+00 Y =-6.066470213160236E+00 Z = 1.784000191994567E-04
 VX= 2.416521901539380E-02 VY= 6.502803259186588E-03 VZ=-1.711788958231098E-04
 LT= 3.573413279772501E-02 RG= 6.187173297194621E+00 RR=-1.625984306832269E-03
2463238.685416667 = A.D. 2032-Jan-07 04:27:00.0000 TDB 
 X = 1.217169847874338E+00 Y =-6.066198998563517E+00 Z = 1.712675616979646E-04
 VX= 2.416174281848667E-02 VY= 6.515498055286940E-03 VZ=-1.711790179080551E-04
 LT= 3.573374043563870E-02 RG= 6.187105361805312E+00 RR=-1.634915145816970E-03
2463238.727083333 = A.D. 2032-Jan-07 05:27:00.0000 TDB 
 X = 1.218176514702916E+00 Y =-6.065927254925079E+00 Z = 1.641351050877658E-04
 VX= 2.415826452006837E-02 VY= 6.528197446353386E-03 VZ=-1.711788488388716E-04
 LT= 3.573334592377151E-02 RG= 6.187037054192983E+00 RR=-1.643851224489599E-03
2463238.768750000 = A.D. 2032-Jan-07 06:27:00.0000 TDB 
 X = 1.219183036540583E+00 Y =-6.065654982031417E+00 Z = 1.570026619680911E-04
 VX= 2.415478306588699E-02 VY= 6.540902464865209E-03 VZ=-1.711783675496493E-04
 LT= 3.573294926071349E-02 RG= 6.186968374113505E+00 RR=-1.652793761802389E-03
2463238.810416667 = A.D. 2032-Jan-07 07:27:00.0000 TDB 
 X = 1.220189413231255E+00 Y =-6.065382179629409E+00 Z = 1.498702456473808E-04
 VX= 2.415129725267241E-02 VY= 6.553613976093116E-03 VZ=-1.711775610065292E-04
 LT= 3.573255044477684E-02 RG= 6.186899321274650E+00 RR=-1.661743842884845E-03
2463238.852083333 = A.D. 2032-Jan-07 08:27:00.0000 TDB 
 X = 1.221195644566057E+00 Y =-6.065108847433747E+00 Z = 1.427378698030237E-04
 VX= 2.414780575446611E-02 VY= 6.566332656182002E-03 VZ=-1.711764246068159E-04
 LT= 3.573214947403146E-02 RG= 6.186829895342227E+00 RR=-1.670702392538927E-03
2463238.893750000 = A.D. 2032-Jan-07 09:27:00.0000 TDB 
 X = 1.222201730278824E+00 Y =-6.064834985135207E+00 Z = 1.356055481259554E-04
 VX= 2.414430715241352E-02 VY= 6.579058974329765E-03 VZ=-1.711749623842677E-04
 LT= 3.573174634634631E-02 RG= 6.186760095947263E+00 RR=-1.679670152039934E-03
2463238.935416667 = A.D. 2032-Jan-07 10:27:00.0000 TDB 
 X = 1.223207670042895E+00 Y =-6.064560592409570E+00 Z = 1.284732939576861E-04
 VX= 2.414079996735010E-02 VY= 6.591793179636386E-03 VZ=-1.711731870090582E-04
 LT= 3.573134105943607E-02 RG= 6.186689922694062E+00 RR=-1.688647659932654E-03
2463238.977083333 = A.D. 2032-Jan-07 11:27:00.0000 TDB 
 X = 1.224213463469322E+00 Y =-6.064285668926962E+00 Z = 1.213411199348992E-04
 VX= 2.413728269440764E-02 VY= 6.604535293102334E-03 VZ=-1.711711195760373E-04
 LT= 3.573093361091170E-02 RG= 6.186619375168974E+00 RR=-1.697635237440545E-03
2463239.018750000 = A.D. 2032-Jan-07 12:27:00.0000 TDB 
 X = 1.225219110106537E+00 Y =-6.064010214361446E+00 Z = 1.142090376487912E-04
 VX= 2.413375383878215E-02 VY= 6.617285105141372E-03 VZ=-1.711687891804708E-04
 LT= 3.573052399833398E-02 RG= 6.186548452949666E+00 RR=-1.706632979011896E-03
2463239.060416667 = A.D. 2032-Jan-07 13:27:00.0000 TDB 
 X = 1.226224609441524E+00 Y =-6.063734228400576E+00 Z = 1.070770573187558E-04
 VX= 2.413021195173972E-02 VY= 6.630042178839255E-03 VZ=-1.711662322865013E-04
 LT= 3.573011221926876E-02 RG= 6.186477155614675E+00 RR=-1.715640748410036E-03
2463239.102083333 = A.D. 2032-Jan-07 14:27:00.0000 TDB 
 X = 1.227229960902479E+00 Y =-6.063457710754691E+00 Z = 9.994518750869993E-05
 VX= 2.412665566589621E-02 VY= 6.642805859036377E-03 VZ=-1.711634918998920E-04
 LT= 3.572969827134223E-02 RG= 6.186405482752990E+00 RR=-1.724658180613553E-03
